{
    "links": {
        "self": "http://www.neowsapp.com/rest/v1/neo/3442848?api_key=iIulBulltgU6a56xZRHN4H3l9WmuAYTsLGpBGhQ2"
    },
    "id": "3442848",
    "neo_reference_id": "3442848",
    "name": "(2008 YG29)",
    "designation": "2008 YG29",
    "nasa_jpl_url": "http://ssd.jpl.nasa.gov/sbdb.cgi?sstr=3442848",
    "absolute_magnitude_h": 24.1,
    "estimated_diameter": {
        "kilometers": {
            "estimated_diameter_min": 0.040230458,
            "estimated_diameter_max": 0.0899580388
        },
        "meters": {
            "estimated_diameter_min": 40.2304579834,
            "estimated_diameter_max": 89.9580388169
        },
        "miles": {
            "estimated_diameter_min": 0.0249980399,
            "estimated_diameter_max": 0.0558973165
        },
        "feet": {
            "estimated_diameter_min": 131.9896957704,
            "estimated_diameter_max": 295.1379320721
        }
    },
    "is_potentially_hazardous_asteroid": false,
    "close_approach_data": [
        {
            "close_approach_date": "2008-12-21",
            "close_approach_date_full": "2008-Dec-21 16:48",
            "epoch_date_close_approach": 1229878080000,
            "relative_velocity": {
                "kilometers_per_second": "6.4829915102",
                "kilometers_per_hour": "23338.7694366966",
                "miles_per_hour": "14501.8037091518"
            },
            "miss_distance": {
                "astronomical": "0.0772785645",
                "lunar": "30.0613615905",
                "kilometers": "11560708.645857615",
                "miles": "7183491.249620487"
            },
            "orbiting_body": "Earth"
        },
        {
            "close_approach_date": "2162-01-09",
            "close_approach_date_full": "2162-Jan-09 14:51",
            "epoch_date_close_approach": 6059717460000,
            "relative_velocity": {
                "kilometers_per_second": "8.4818650622",
                "kilometers_per_hour": "30534.7142238856",
                "miles_per_hour": "18973.0839576138"
            },
            "miss_distance": {
                "astronomical": "0.1345120688",
                "lunar": "52.3251947632",
                "kilometers": "20122718.981773456",
                "miles": "12503677.7720314528"
            },
            "orbiting_body": "Earth"
        }
    ],
    "orbital_data": {
        "orbit_id": "15",
        "orbit_determination_date": "2017-04-06 09:01:46",
        "first_observation_date": "2008-12-30",
        "last_observation_date": "2009-01-31",
        "data_arc_in_days": 32,
        "observations_used": 48,
        "orbit_uncertainty": "7",
        "minimum_orbit_intersection": ".0777938",
        "jupiter_tisserand_invariant": "3.441",
        "epoch_osculation": "2459000.5",
        "eccentricity": ".5260885959749894",
        "semi_major_axis": "2.230121961827338",
        "inclination": "6.032128548687886",
        "ascending_node_longitude": "283.8514164904003",
        "orbital_period": "1216.441837953027",
        "perihelion_distance": "1.056880230076605",
        "perihelion_argument": "163.7988074626093",
        "aphelion_distance": "3.403363693578072",
        "perihelion_time": "2458468.349465652436",
        "mean_anomaly": "157.48734250007",
        "mean_motion": ".2959450988678519",
        "equinox": "J2000",
        "orbit_class": {
            "orbit_class_type": "AMO",
            "orbit_class_description": "Near-Earth asteroid orbits similar to that of 1221 Amor",
            "orbit_class_range": "1.017 AU < q (perihelion) < 1.3 AU"
        }
    },
    "is_sentry_object": false
}